ORBCOMM FM103           
1 40091U 14040F   24253.50996898  .00003258  00000+0  75417-3 0  9997
2 40091  47.0041 262.3460 0001294  42.3247 317.7738 14.57022077523150
ORBCOMM FM114           
1 41179U 15081A   24253.47052907  .00004674  00000+0  10642-2 0  9992
2 41179  47.0007 171.7320 0001472 137.1732 222.9267 14.57073599463510
ORBCOMM FM119           
1 41180U 15081B   24253.58373115  .00003378  00000+0  78082-3 0  9996
2 41180  46.9992  80.4298 0001895 219.3733 140.7015 14.57002462464785
ORBCOMM FM105           
1 41181U 15081C   24253.42152634  .00001931  00000+0  59783-3 0  9991
2 41181  47.0020  59.3413 0001665 164.1494 195.9439 14.44618222460141
ORBCOMM FM110           
1 41182U 15081D   24253.51540070  .00005055  00000+0  11482-2 0  9991
2 41182  46.9996 170.9074 0001955 305.7721  54.2982 14.57064916463392
ORBCOMM FM118           
1 41183U 15081E   24253.49333168  .00004321  00000+0  98603-3 0  9993
2 41183  47.0022 171.3493 0002491 309.8472  50.2194 14.57106833463496
ORBCOMM FM112           
1 41184U 15081F   24253.56077998  .00003596  00000+0  82850-3 0  9998
2 41184  46.9973  79.7346 0002063 194.1275 165.9552 14.57012728464727
