<?xml version="1.0" encoding="UTF-8"?>
<ndm xmlns:xsi="http://www.w3.org/2001/XMLSchema-instance" xsi:noNamespaceSchemaLocation="https://sanaregistry.org/r/ndmxml_unqualified/ndmxml-2.0.0-master-2.0.xsd">
<omm id="CCSDS_OMM_VERS" version="2.0">
<header><CREATION_DATE/><ORIGINATOR/></header><body><segment><metadata><OBJECT_NAME>ORBCOMM FM103</OBJECT_NAME><OBJECT_ID>2014-040F</OBJECT_ID><CENTER_NAME>EARTH</CENTER_NAME><REF_FRAME>TEME</REF_FRAME><TIME_SYSTEM>UTC</TIME_SYSTEM><MEAN_ELEMENT_THEORY>SGP4</MEAN_ELEMENT_THEORY></metadata><data><meanElements><EPOCH>2024-09-09T12:14:21.319872</EPOCH><MEAN_MOTION>14.57022077</MEAN_MOTION><ECCENTRICITY>.0001294</ECCENTRICITY><INCLINATION>47.0041</INCLINATION><RA_OF_ASC_NODE>262.3460</RA_OF_ASC_NODE><ARG_OF_PERICENTER>42.3247</ARG_OF_PERICENTER><MEAN_ANOMALY>317.7738</MEAN_ANOMALY></meanElements><tleParameters><EPHEMERIS_TYPE>0</EPHEMERIS_TYPE><CLASSIFICATION_TYPE>U</CLASSIFICATION_TYPE><NORAD_CAT_ID>40091</NORAD_CAT_ID><ELEMENT_SET_NO>999</ELEMENT_SET_NO><REV_AT_EPOCH>52315</REV_AT_EPOCH><BSTAR>.75417E-3</BSTAR><MEAN_MOTION_DOT>.3258E-4</MEAN_MOTION_DOT><MEAN_MOTION_DDOT>0</MEAN_MOTION_DDOT></tleParameters></data></segment></body></omm>
<omm id="CCSDS_OMM_VERS" version="2.0">
<header><CREATION_DATE/><ORIGINATOR/></header><body><segment><metadata><OBJECT_NAME>ORBCOMM FM114</OBJECT_NAME><OBJECT_ID>2015-081A</OBJECT_ID><CENTER_NAME>EARTH</CENTER_NAME><REF_FRAME>TEME</REF_FRAME><TIME_SYSTEM>UTC</TIME_SYSTEM><MEAN_ELEMENT_THEORY>SGP4</MEAN_ELEMENT_THEORY></metadata><data><meanElements><EPOCH>2024-09-09T11:17:33.711648</EPOCH><MEAN_MOTION>14.57073599</MEAN_MOTION><ECCENTRICITY>.0001472</ECCENTRICITY><INCLINATION>47.0007</INCLINATION><RA_OF_ASC_NODE>171.7320</RA_OF_ASC_NODE><ARG_OF_PERICENTER>137.1732</ARG_OF_PERICENTER><MEAN_ANOMALY>222.9267</MEAN_ANOMALY></meanElements><tleParameters><EPHEMERIS_TYPE>0</EPHEMERIS_TYPE><CLASSIFICATION_TYPE>U</CLASSIFICATION_TYPE><NORAD_CAT_ID>41179</NORAD_CAT_ID><ELEMENT_SET_NO>999</ELEMENT_SET_NO><REV_AT_EPOCH>46351</REV_AT_EPOCH><BSTAR>.10642E-2</BSTAR><MEAN_MOTION_DOT>.4674E-4</MEAN_MOTION_DOT><MEAN_MOTION_DDOT>0</MEAN_MOTION_DDOT></tleParameters></data></segment></body></omm>
<omm id="CCSDS_OMM_VERS" version="2.0">
<header><CREATION_DATE/><ORIGINATOR/></header><body><segment><metadata><OBJECT_NAME>ORBCOMM FM119</OBJECT_NAME><OBJECT_ID>2015-081B</OBJECT_ID><CENTER_NAME>EARTH</CENTER_NAME><REF_FRAME>TEME</REF_FRAME><TIME_SYSTEM>UTC</TIME_SYSTEM><MEAN_ELEMENT_THEORY>SGP4</MEAN_ELEMENT_THEORY></metadata><data><meanElements><EPOCH>2024-09-09T14:00:34.371360</EPOCH><MEAN_MOTION>14.57002462</MEAN_MOTION><ECCENTRICITY>.0001895</ECCENTRICITY><INCLINATION>46.9992</INCLINATION><RA_OF_ASC_NODE>80.4298</RA_OF_ASC_NODE><ARG_OF_PERICENTER>219.3733</ARG_OF_PERICENTER><MEAN_ANOMALY>140.7015</MEAN_ANOMALY></meanElements><tleParameters><EPHEMERIS_TYPE>0</EPHEMERIS_TYPE><CLASSIFICATION_TYPE>U</CLASSIFICATION_TYPE><NORAD_CAT_ID>41180</NORAD_CAT_ID><ELEMENT_SET_NO>999</ELEMENT_SET_NO><REV_AT_EPOCH>46478</REV_AT_EPOCH><BSTAR>.78082E-3</BSTAR><MEAN_MOTION_DOT>.3378E-4</MEAN_MOTION_DOT><MEAN_MOTION_DDOT>0</MEAN_MOTION_DDOT></tleParameters></data></segment></body></omm>
<omm id="CCSDS_OMM_VERS" version="2.0">
<header><CREATION_DATE/><ORIGINATOR/></header><body><segment><metadata><OBJECT_NAME>ORBCOMM FM105</OBJECT_NAME><OBJECT_ID>2015-081C</OBJECT_ID><CENTER_NAME>EARTH</CENTER_NAME><REF_FRAME>TEME</REF_FRAME><TIME_SYSTEM>UTC</TIME_SYSTEM><MEAN_ELEMENT_THEORY>SGP4</MEAN_ELEMENT_THEORY></metadata><data><meanElements><EPOCH>2024-09-09T10:06:59.875776</EPOCH><MEAN_MOTION>14.44618222</MEAN_MOTION><ECCENTRICITY>.0001665</ECCENTRICITY><INCLINATION>47.0020</INCLINATION><RA_OF_ASC_NODE>59.3413</RA_OF_ASC_NODE><ARG_OF_PERICENTER>164.1494</ARG_OF_PERICENTER><MEAN_ANOMALY>195.9439</MEAN_ANOMALY></meanElements><tleParameters><EPHEMERIS_TYPE>0</EPHEMERIS_TYPE><CLASSIFICATION_TYPE>U</CLASSIFICATION_TYPE><NORAD_CAT_ID>41181</NORAD_CAT_ID><ELEMENT_SET_NO>999</ELEMENT_SET_NO><REV_AT_EPOCH>46014</REV_AT_EPOCH><BSTAR>.59783E-3</BSTAR><MEAN_MOTION_DOT>.1931E-4</MEAN_MOTION_DOT><MEAN_MOTION_DDOT>0</MEAN_MOTION_DDOT></tleParameters></data></segment></body></omm>
<omm id="CCSDS_OMM_VERS" version="2.0">
<header><CREATION_DATE/><ORIGINATOR/></header><body><segment><metadata><OBJECT_NAME>ORBCOMM FM110</OBJECT_NAME><OBJECT_ID>2015-081D</OBJECT_ID><CENTER_NAME>EARTH</CENTER_NAME><REF_FRAME>TEME</REF_FRAME><TIME_SYSTEM>UTC</TIME_SYSTEM><MEAN_ELEMENT_THEORY>SGP4</MEAN_ELEMENT_THEORY></metadata><data><meanElements><EPOCH>2024-09-09T12:22:10.620480</EPOCH><MEAN_MOTION>14.57064916</MEAN_MOTION><ECCENTRICITY>.0001955</ECCENTRICITY><INCLINATION>46.9996</INCLINATION><RA_OF_ASC_NODE>170.9074</RA_OF_ASC_NODE><ARG_OF_PERICENTER>305.7721</ARG_OF_PERICENTER><MEAN_ANOMALY>54.2982</MEAN_ANOMALY></meanElements><tleParameters><EPHEMERIS_TYPE>0</EPHEMERIS_TYPE><CLASSIFICATION_TYPE>U</CLASSIFICATION_TYPE><NORAD_CAT_ID>41182</NORAD_CAT_ID><ELEMENT_SET_NO>999</ELEMENT_SET_NO><REV_AT_EPOCH>46339</REV_AT_EPOCH><BSTAR>.11482E-2</BSTAR><MEAN_MOTION_DOT>.5055E-4</MEAN_MOTION_DOT><MEAN_MOTION_DDOT>0</MEAN_MOTION_DDOT></tleParameters></data></segment></body></omm>
<omm id="CCSDS_OMM_VERS" version="2.0">
<header><CREATION_DATE/><ORIGINATOR/></header><body><segment><metadata><OBJECT_NAME>ORBCOMM FM118</OBJECT_NAME><OBJECT_ID>2015-081E</OBJECT_ID><CENTER_NAME>EARTH</CENTER_NAME><REF_FRAME>TEME</REF_FRAME><TIME_SYSTEM>UTC</TIME_SYSTEM><MEAN_ELEMENT_THEORY>SGP4</MEAN_ELEMENT_THEORY></metadata><data><meanElements><EPOCH>2024-09-09T11:50:23.857152</EPOCH><MEAN_MOTION>14.57106833</MEAN_MOTION><ECCENTRICITY>.0002491</ECCENTRICITY><INCLINATION>47.0022</INCLINATION><RA_OF_ASC_NODE>171.3493</RA_OF_ASC_NODE><ARG_OF_PERICENTER>309.8472</ARG_OF_PERICENTER><MEAN_ANOMALY>50.2194</MEAN_ANOMALY></meanElements><tleParameters><EPHEMERIS_TYPE>0</EPHEMERIS_TYPE><CLASSIFICATION_TYPE>U</CLASSIFICATION_TYPE><NORAD_CAT_ID>41183</NORAD_CAT_ID><ELEMENT_SET_NO>999</ELEMENT_SET_NO><REV_AT_EPOCH>46349</REV_AT_EPOCH><BSTAR>.98603E-3</BSTAR><MEAN_MOTION_DOT>.4321E-4</MEAN_MOTION_DOT><MEAN_MOTION_DDOT>0</MEAN_MOTION_DDOT></tleParameters></data></segment></body></omm>
<omm id="CCSDS_OMM_VERS" version="2.0">
<header><CREATION_DATE/><ORIGINATOR/></header><body><segment><metadata><OBJECT_NAME>ORBCOMM FM112</OBJECT_NAME><OBJECT_ID>2015-081F</OBJECT_ID><CENTER_NAME>EARTH</CENTER_NAME><REF_FRAME>TEME</REF_FRAME><TIME_SYSTEM>UTC</TIME_SYSTEM><MEAN_ELEMENT_THEORY>SGP4</MEAN_ELEMENT_THEORY></metadata><data><meanElements><EPOCH>2024-09-09T13:27:31.390272</EPOCH><MEAN_MOTION>14.57012728</MEAN_MOTION><ECCENTRICITY>.0002063</ECCENTRICITY><INCLINATION>46.9973</INCLINATION><RA_OF_ASC_NODE>79.7346</RA_OF_ASC_NODE><ARG_OF_PERICENTER>194.1275</ARG_OF_PERICENTER><MEAN_ANOMALY>165.9552</MEAN_ANOMALY></meanElements><tleParameters><EPHEMERIS_TYPE>0</EPHEMERIS_TYPE><CLASSIFICATION_TYPE>U</CLASSIFICATION_TYPE><NORAD_CAT_ID>41184</NORAD_CAT_ID><ELEMENT_SET_NO>999</ELEMENT_SET_NO><REV_AT_EPOCH>46472</REV_AT_EPOCH><BSTAR>.8285E-3</BSTAR><MEAN_MOTION_DOT>.3596E-4</MEAN_MOTION_DOT><MEAN_MOTION_DDOT>0</MEAN_MOTION_DDOT></tleParameters></data></segment></body></omm>

</ndm>
